[{"OBJECT_NAME":"STARLINK-5553","OBJECT_ID":"2023-058S","EPOCH":"2025-09-12T22:56:32.454816","MEAN_MOTION":15.01259666,"ECCENTRICITY":0.00018653,"INCLINATION":97.6035,"RA_OF_ASC_NODE":256.2023,"ARG_OF_PERICENTER":89.859,"MEAN_ANOMALY":270.2848,"EPHEMERIS_TYPE":0,"CLASSIFICATION_TYPE":"U","NORAD_CAT_ID":56333,"ELEMENT_SET_NO":999,"REV_AT_EPOCH":13146,"BSTAR":3.482306e-5,"MEAN_MOTION_DOT":3.89e-6,"MEAN_MOTION_DDOT":0},{"OBJECT_NAME":"STARLINK-5548","OBJECT_ID":"2023-058T","EPOCH":"2025-09-12T18:13:55.470720","MEAN_MOTION":15.01274527,"ECCENTRICITY":0.00013768,"INCLINATION":97.6046,"RA_OF_ASC_NODE":256,"ARG_OF_PERICENTER":69.3506,"MEAN_ANOMALY":290.7866,"EPHEMERIS_TYPE":0,"CLASSIFICATION_TYPE":"U","NORAD_CAT_ID":56334,"ELEMENT_SET_NO":999,"REV_AT_EPOCH":13143,"BSTAR":0.0005871204,"MEAN_MOTION_DOT":7.494e-5,"MEAN_MOTION_DDOT":0},{"OBJECT_NAME":"STARLINK-5559","OBJECT_ID":"2023-058U","EPOCH":"2025-09-13T06:48:46.591776","MEAN_MOTION":15.01257672,"ECCENTRICITY":0.00020752,"INCLINATION":97.6026,"RA_OF_ASC_NODE":256.5386,"ARG_OF_PERICENTER":85.8756,"MEAN_ANOMALY":274.2706,"EPHEMERIS_TYPE":0,"CLASSIFICATION_TYPE":"U","NORAD_CAT_ID":56335,"ELEMENT_SET_NO":999,"REV_AT_EPOCH":13151,"BSTAR":-6.933119e-6,"MEAN_MOTION_DOT":-1.47e-6,"MEAN_MOTION_DDOT":0},{"OBJECT_NAME":"STARLINK-5562","OBJECT_ID":"2023-058V","EPOCH":"2025-09-12T23:04:31.719936","MEAN_MOTION":15.01268618,"ECCENTRICITY":0.00018307,"INCLINATION":97.6048,"RA_OF_ASC_NODE":256.19,"ARG_OF_PERICENTER":91.7297,"MEAN_ANOMALY":268.4137,"EPHEMERIS_TYPE":0,"CLASSIFICATION_TYPE":"U","NORAD_CAT_ID":56336,"ELEMENT_SET_NO":999,"REV_AT_EPOCH":13146,"BSTAR":1.0699669e-5,"MEAN_MOTION_DOT":7.9e-7,"MEAN_MOTION_DDOT":0},{"OBJECT_NAME":"STARLINK-5561","OBJECT_ID":"2023-058W","EPOCH":"2025-09-13T06:51:28.236672","MEAN_MOTION":15.0125566,"ECCENTRICITY":0.00020411,"INCLINATION":97.6009,"RA_OF_ASC_NODE":256.5426,"ARG_OF_PERICENTER":83.4636,"MEAN_ANOMALY":276.6821,"EPHEMERIS_TYPE":0,"CLASSIFICATION_TYPE":"U","NORAD_CAT_ID":56337,"ELEMENT_SET_NO":999,"REV_AT_EPOCH":13151,"BSTAR":6.9687122e-5,"MEAN_MOTION_DOT":8.37e-6,"MEAN_MOTION_DDOT":0},{"OBJECT_NAME":"STARLINK-5554","OBJECT_ID":"2023-058X","EPOCH":"2025-09-12T22:53:52.266624","MEAN_MOTION":15.01259687,"ECCENTRICITY":0.00019029,"INCLINATION":97.6028,"RA_OF_ASC_NODE":256.2069,"ARG_OF_PERICENTER":87.5136,"MEAN_ANOMALY":272.6307,"EPHEMERIS_TYPE":0,"CLASSIFICATION_TYPE":"U","NORAD_CAT_ID":56338,"ELEMENT_SET_NO":999,"REV_AT_EPOCH":13146,"BSTAR":5.1820194e-5,"MEAN_MOTION_DOT":6.07e-6,"MEAN_MOTION_DDOT":0},{"OBJECT_NAME":"STARLINK-5552","OBJECT_ID":"2023-058Y","EPOCH":"2025-09-13T06:43:06.047040","MEAN_MOTION":15.01262398,"ECCENTRICITY":0.00034026,"INCLINATION":97.6024,"RA_OF_ASC_NODE":256.5453,"ARG_OF_PERICENTER":78.5597,"MEAN_ANOMALY":281.601,"EPHEMERIS_TYPE":0,"CLASSIFICATION_TYPE":"U","NORAD_CAT_ID":56339,"ELEMENT_SET_NO":999,"REV_AT_EPOCH":13151,"BSTAR":4.2087419e-5,"MEAN_MOTION_DOT":4.82e-6,"MEAN_MOTION_DDOT":0},{"OBJECT_NAME":"STARLINK-5540","OBJECT_ID":"2023-058Z","EPOCH":"2025-09-13T06:51:05.891904","MEAN_MOTION":15.01262487,"ECCENTRICITY":0.00021727,"INCLINATION":97.6027,"RA_OF_ASC_NODE":256.5356,"ARG_OF_PERICENTER":85.2971,"MEAN_ANOMALY":274.8502,"EPHEMERIS_TYPE":0,"CLASSIFICATION_TYPE":"U","NORAD_CAT_ID":56340,"ELEMENT_SET_NO":999,"REV_AT_EPOCH":13151,"BSTAR":6.4473742e-5,"MEAN_MOTION_DOT":7.7e-6,"MEAN_MOTION_DDOT":0},{"OBJECT_NAME":"STARLINK-5543","OBJECT_ID":"2023-058AA","EPOCH":"2025-09-13T06:48:26.410464","MEAN_MOTION":15.01258708,"ECCENTRICITY":0.00023908,"INCLINATION":97.6023,"RA_OF_ASC_NODE":256.5396,"ARG_OF_PERICENTER":89.0427,"MEAN_ANOMALY":271.1071,"EPHEMERIS_TYPE":0,"CLASSIFICATION_TYPE":"U","NORAD_CAT_ID":56341,"ELEMENT_SET_NO":999,"REV_AT_EPOCH":13150,"BSTAR":-3.8220262e-5,"MEAN_MOTION_DOT":-5.49e-6,"MEAN_MOTION_DDOT":0},{"OBJECT_NAME":"STARLINK-5955","OBJECT_ID":"2023-058AB","EPOCH":"2025-09-12T22:45:52.137504","MEAN_MOTION":15.01263915,"ECCENTRICITY":0.00029496,"INCLINATION":97.6025,"RA_OF_ASC_NODE":256.216,"ARG_OF_PERICENTER":75.3286,"MEAN_ANOMALY":284.8265,"EPHEMERIS_TYPE":0,"CLASSIFICATION_TYPE":"U","NORAD_CAT_ID":56342,"ELEMENT_SET_NO":999,"REV_AT_EPOCH":13146,"BSTAR":3.7582511e-5,"MEAN_MOTION_DOT":4.24e-6,"MEAN_MOTION_DDOT":0},{"OBJECT_NAME":"STARLINK-5976","OBJECT_ID":"2023-058AC","EPOCH":"2025-09-13T06:35:06.275616","MEAN_MOTION":15.01267481,"ECCENTRICITY":0.00036218,"INCLINATION":97.6018,"RA_OF_ASC_NODE":256.5532,"ARG_OF_PERICENTER":48.8355,"MEAN_ANOMALY":311.3182,"EPHEMERIS_TYPE":0,"CLASSIFICATION_TYPE":"U","NORAD_CAT_ID":56343,"ELEMENT_SET_NO":999,"REV_AT_EPOCH":13151,"BSTAR":1.6854843e-5,"MEAN_MOTION_DOT":1.58e-6,"MEAN_MOTION_DDOT":0},{"OBJECT_NAME":"STARLINK-5974","OBJECT_ID":"2023-058AD","EPOCH":"2025-09-13T06:40:25.985856","MEAN_MOTION":15.01262179,"ECCENTRICITY":0.00030204,"INCLINATION":97.6018,"RA_OF_ASC_NODE":256.5477,"ARG_OF_PERICENTER":81.3179,"MEAN_ANOMALY":278.8388,"EPHEMERIS_TYPE":0,"CLASSIFICATION_TYPE":"U","NORAD_CAT_ID":56344,"ELEMENT_SET_NO":999,"REV_AT_EPOCH":13151,"BSTAR":3.9376602e-5,"MEAN_MOTION_DOT":4.47e-6,"MEAN_MOTION_DDOT":0},{"OBJECT_NAME":"STARLINK-5979","OBJECT_ID":"2023-058AE","EPOCH":"2025-09-13T06:32:25.157760","MEAN_MOTION":15.01271088,"ECCENTRICITY":0.00040344,"INCLINATION":97.6019,"RA_OF_ASC_NODE":256.5559,"ARG_OF_PERICENTER":46.0939,"MEAN_ANOMALY":314.0618,"EPHEMERIS_TYPE":0,"CLASSIFICATION_TYPE":"U","NORAD_CAT_ID":56345,"ELEMENT_SET_NO":999,"REV_AT_EPOCH":13151,"BSTAR":0.00012403314,"MEAN_MOTION_DOT":1.536e-5,"MEAN_MOTION_DDOT":0},{"OBJECT_NAME":"STARLINK-5837","OBJECT_ID":"2023-058AF","EPOCH":"2025-09-13T06:37:46.282368","MEAN_MOTION":15.01260554,"ECCENTRICITY":0.0003629,"INCLINATION":97.6022,"RA_OF_ASC_NODE":256.5512,"ARG_OF_PERICENTER":65.5526,"MEAN_ANOMALY":294.6077,"EPHEMERIS_TYPE":0,"CLASSIFICATION_TYPE":"U","NORAD_CAT_ID":56346,"ELEMENT_SET_NO":999,"REV_AT_EPOCH":13151,"BSTAR":-2.860544e-6,"MEAN_MOTION_DOT":-9.5e-7,"MEAN_MOTION_DDOT":0},{"OBJECT_NAME":"STARLINK-5829","OBJECT_ID":"2023-058AG","EPOCH":"2025-09-12T22:30:53.773632","MEAN_MOTION":15.00547918,"ECCENTRICITY":0.00076453,"INCLINATION":97.6017,"RA_OF_ASC_NODE":256.2312,"ARG_OF_PERICENTER":50.0218,"MEAN_ANOMALY":310.1677,"EPHEMERIS_TYPE":0,"CLASSIFICATION_TYPE":"U","NORAD_CAT_ID":56347,"ELEMENT_SET_NO":999,"REV_AT_EPOCH":13146,"BSTAR":-0.0071000794,"MEAN_MOTION_DOT":-0.00088518,"MEAN_MOTION_DDOT":0},{"OBJECT_NAME":"STARLINK-5888","OBJECT_ID":"2023-058AH","EPOCH":"2025-09-13T06:40:46.956864","MEAN_MOTION":15.01262467,"ECCENTRICITY":0.00023999,"INCLINATION":97.602,"RA_OF_ASC_NODE":256.548,"ARG_OF_PERICENTER":66.1028,"MEAN_ANOMALY":294.0448,"EPHEMERIS_TYPE":0,"CLASSIFICATION_TYPE":"U","NORAD_CAT_ID":56348,"ELEMENT_SET_NO":999,"REV_AT_EPOCH":13151,"BSTAR":4.8185965e-5,"MEAN_MOTION_DOT":5.61e-6,"MEAN_MOTION_DDOT":0}]
