STARLINK-5553           
1 56333U 23058S   25255.95593119  .00000389  00000+0  34823-4 0  9992
2 56333  97.6035 256.2023 0001865  89.8590 270.2848 15.01259666131468
STARLINK-5548           
1 56334U 23058T   25255.75966980  .00007494  00000+0  58712-3 0  9997
2 56334  97.6046 256.0000 0001376  69.3506 290.7866 15.01274527131438
STARLINK-5559           
1 56335U 23058U   25256.28387259 -.00000147  00000+0 -69331-5 0  9994
2 56335  97.6026 256.5386 0002075  85.8756 274.2706 15.01257672131517
STARLINK-5562           
1 56336U 23058V   25255.96147824  .00000079  00000+0  10700-4 0  9998
2 56336  97.6048 256.1900 0001830  91.7297 268.4137 15.01268618131463
STARLINK-5561           
1 56337U 23058W   25256.28574348  .00000837  00000+0  69687-4 0  9990
2 56337  97.6009 256.5426 0002041  83.4636 276.6821 15.01255660131518
STARLINK-5554           
1 56338U 23058X   25255.95407716  .00000607  00000+0  51820-4 0  9993
2 56338  97.6028 256.2069 0001902  87.5136 272.6307 15.01259687131467
STARLINK-5552           
1 56339U 23058Y   25256.27993110  .00000482  00000+0  42087-4 0  9994
2 56339  97.6024 256.5453 0003402  78.5597 281.6010 15.01262398131512
STARLINK-5540           
1 56340U 23058Z   25256.28548486  .00000770  00000+0  64474-4 0  9993
2 56340  97.6027 256.5356 0002172  85.2971 274.8502 15.01262487131512
STARLINK-5543           
1 56341U 23058AA  25256.28363901 -.00000549  00000+0 -38220-4 0  9997
2 56341  97.6023 256.5396 0002390  89.0427 271.1071 15.01258708131504
STARLINK-5955           
1 56342U 23058AB  25255.94852011  .00000424  00000+0  37583-4 0  9996
2 56342  97.6025 256.2160 0002949  75.3286 284.8265 15.01263915131461
STARLINK-5976           
1 56343U 23058AC  25256.27437819  .00000158  00000+0  16855-4 0  9992
2 56343  97.6018 256.5532 0003621  48.8355 311.3182 15.01267481131512
STARLINK-5974           
1 56344U 23058AD  25256.27807854  .00000447  00000+0  39377-4 0  9998
2 56344  97.6018 256.5477 0003020  81.3179 278.8388 15.01262179131514
STARLINK-5979           
1 56345U 23058AE  25256.27251340  .00001536  00000+0  12403-3 0  9992
2 56345  97.6019 256.5559 0004034  46.0939 314.0618 15.01271088131513
STARLINK-5837           
1 56346U 23058AF  25256.27623012 -.00000095  00000+0 -28605-5 0  9996
2 56346  97.6022 256.5512 0003629  65.5526 294.6077 15.01260554131512
STARLINK-5829           
1 56347U 23058AG  25255.93812238 -.00088518  00000+0 -71001-2 0  9990
2 56347  97.6017 256.2312 0007645  50.0218 310.1677 15.00547918131466
STARLINK-5888           
1 56348U 23058AH  25256.27832126  .00000561  00000+0  48186-4 0  9997
2 56348  97.6020 256.5480 0002399  66.1028 294.0448 15.01262467131514
